NORAD_CAT_ID,OBJECT_NAME,OBJECT_TYPE,EPOCH,MEAN_MOTION,ECCENTRICITY,INCLINATION,RA_OF_ASC_NODE,ARG_OF_PERICENTER,MEAN_ANOMALY,BSTAR,MEAN_MOTION_DOT,MEAN_MOTION_DDOT,TLE_LINE0,TLE_LINE1,TLE_LINE2,SEMIMAJOR_AXIS,PERIOD,APOGEE,PERIGEE,DECAYED
53919.0,STARLINK-5023,PAYLOAD,2022-10-25 14:00:01,15.73217702,0.0001125,53.2144,101.4521,50.4523,140.7616,0.00016412,0.00022492,0.0,0 STARLINK-5023,1 53919U 22119AK  22298.58334491  .00022492  00000-0  16412-3 0  9998,2 53919  53.2144 101.4521 0001125  50.4523 140.7616 15.73217702  1304,6727.845,91.532,350.467,348.95300000000015,0.0
53919.0,STARLINK-5023,PAYLOAD,2022-10-25 22:00:01,15.732087,0.0001375999999999,53.2145,99.804,40.7543,239.4892,0.00012052,0.00016333,0.0,0 STARLINK-5023,1 53919U 22119AK  22298.91668981  .00016333  00000-0  12052-3 0  9992,2 53919  53.2145  99.8040 0001376  40.7543 239.4892 15.73208700  1303,6727.87,91.533,350.661,348.81,0.0
53919.0,STARLINK-5023,PAYLOAD,2022-10-26 06:00:00,15.73226208,0.0001211999999999,53.2148,98.1523,46.4133,322.7107,-0.00020526,-0.00029358,0.0,0 STARLINK-5023,1 53919U 22119AK  22299.25001157 -.00029358  00000-0 -20526-3 0  9994,2 53919  53.2148  98.1523 0001212  46.4133 322.7107 15.73226208  5358,6727.82,91.532,350.501,348.87,0.0
53919.0,STARLINK-5023,PAYLOAD,2022-10-26 14:00:01,15.73217307,0.0001313,53.2149,96.5034,43.0081,55.066,8.5493e-06,5.81e-06,0.0,0 STARLINK-5023,1 53919U 22119AK  22299.58334491  .00000581  00000-0  85493-5 0  9991,2 53919  53.2149  96.5034 0001313  43.0081  55.0660 15.73217307  1306,6727.846,91.532,350.594,348.827,0.0
53919.0,STARLINK-5023,PAYLOAD,2022-10-26 22:00:00,15.73182988,0.0001557,53.2144,94.8551,37.8472,149.1861,0.00030363,0.00042176,0.0,0 STARLINK-5023,1 53919U 22119AK  22299.91667824  .00042176  00000-0  30363-3 0  9997,2 53919  53.2144  94.8551 0001557  37.8472 149.1861 15.73182988  1305,6727.944,91.534,350.856,348.761,0.0
53919.0,STARLINK-5023,PAYLOAD,2022-10-27 14:00:01,15.73242698,0.0001598,53.215,91.5547,47.9017,317.0989,-5.0161e-05,-7.667e-05,0.0,0 STARLINK-5023,1 53919U 22119AK  22300.58335648 -.00007667  00000-0 -50161-4 0  9996,2 53919  53.2150  91.5547 0001598  47.9017 317.0989 15.73242698  5567,6727.773,91.531,350.714,348.56300000000016,0.0
53919.0,STARLINK-5023,PAYLOAD,2022-10-27 22:00:00,15.73255957,0.0001763,53.215,89.9064,39.3782,54.5358,-0.000254,-0.00036202,0.0,0 STARLINK-5023,1 53919U 22119AK  22300.91667824 -.00036202  00000-0 -25400-3 0  9991,2 53919  53.2150  89.9064 0001763  39.3782  54.5358 15.73255957  1303,6727.736,91.53,350.787,348.415,0.0
53919.0,STARLINK-5023,PAYLOAD,2022-10-28 14:00:01,15.73185129,0.0001685,53.2154,86.6063,37.9535,233.9481,0.00027163,0.00037649,0.0,0 STARLINK-5023,1 53919U 22119AK  22301.58335648  .00037649  00000-0  27163-3 0  9993,2 53919  53.2154  86.6063 0001685  37.9535 233.9481 15.73185129  5726,6727.938,91.534,350.936,348.6690000000001,0.0
53919.0,STARLINK-5023,PAYLOAD,2022-10-28 22:00:01,15.73231512,0.0001809,53.2149,84.9578,28.7992,332.0248,-0.00030455,-0.00043203,0.0,0 STARLINK-5023,1 53919U 22119AK  22301.91668981 -.00043203  00000-0 -30455-3 0  9992,2 53919  53.2149  84.9578 0001809  28.7992 332.0248 15.73231512  1316,6727.805,91.531,350.88699999999994,348.45300000000015,0.0
53919.0,STARLINK-5023,PAYLOAD,2022-10-29 04:00:00,15.73188565,0.0001599,53.2152,83.719,33.6156,303.8715,0.00012861,0.00017458,0.0,0 STARLINK-5023,1 53919U 22119AK  22302.16667824  .00017458  00000-0  12861-3 0  9997,2 53919  53.2152  83.7190 0001599  33.6156 303.8715 15.73188565  5813,6727.928000000001,91.534,350.869,348.717,0.0
53919.0,STARLINK-5023,PAYLOAD,2022-10-29 12:00:00,15.73255759,0.0001593,53.2154,82.0699,31.0357,35.3668,-0.00049,-0.00068993,0.0,0 STARLINK-5023,1 53919U 22119AK  22302.50001157 -.00068993  00000-0 -49000-3 0  9993,2 53919  53.2154  82.0699 0001593  31.0357  35.3668 15.73255759  1304,6727.736,91.53,350.673,348.529,0.0
53919.0,STARLINK-5023,PAYLOAD,2022-10-29 22:00:01,15.73237317,0.0001815,53.2153,80.0093,20.9885,246.6663,0.00016024,0.00021963,0.0,0 STARLINK-5023,1 53919U 22119AK  22302.91668981  .00021963  00000-0  16024-3 0  9996,2 53919  53.2153  80.0093 0001815  20.9885 246.6663 15.73237317  1301,6727.7890000000025,91.531,350.875,348.43300000000005,0.0
53919.0,STARLINK-5023,PAYLOAD,2022-10-30 14:00:01,15.73240022,0.0001955,53.2155,76.7099,26.2645,59.1425,-0.00079208,-0.00110534,0.0,0 STARLINK-5023,1 53919U 22119AK  22303.58334491 -.00110534  00000-0 -79208-3 0  9994,2 53919  53.2155  76.7099 0001955  26.2645  59.1425 15.73240022  1309,6727.781,91.531,350.961,348.331,0.0
53919.0,STARLINK-5023,PAYLOAD,2022-10-30 22:00:01,15.73147096,0.0002072,53.2149,75.0608,22.7273,151.6829,0.00055126,0.00077288,0.0,0 STARLINK-5023,1 53919U 22119AK  22303.91668981  .00077288  00000-0  55126-3 0  9994,2 53919  53.2149  75.0608 0002072  22.7273 151.6829 15.73147096  1302,6728.045999999999,91.536,351.305,348.517,0.0
53919.0,STARLINK-5023,PAYLOAD,2022-10-31 14:00:01,15.7320646,0.0002056999999999,53.2152,71.7615,25.657,326.5266,-0.0004455,-0.00062703,0.0,0 STARLINK-5023,1 53919U 22119AK  22304.58334491 -.00062703  00000-0 -44550-3 0  9991,2 53919  53.2152  71.7615 0002057  25.6570 326.5266 15.73206460  1301,6727.877,91.533,351.126,348.358,0.0
53919.0,STARLINK-5023,PAYLOAD,2022-10-31 20:00:01,15.73169826,0.0002258,53.2152,70.5251,21.4196,307.5169,0.00015679,0.00021413,0.0,0 STARLINK-5023,1 53919U 22119AK  22304.83335648  .00021413  00000-0  15679-3 0  9995,2 53919  53.2152  70.5251 0002258  21.4196 307.5169 15.73169826  6237,6727.981,91.535,351.365,348.327,0.0
53919.0,STARLINK-5023,PAYLOAD,2022-10-31 22:00:01,15.73193038,0.0002273,53.2151,70.1121,22.7074,58.4474,-0.00015895,-0.00022864,0.0,0 STARLINK-5023,1 53919U 22119AK  22304.91668981 -.00022864  00000-0 -15895-3 0  9996,2 53919  53.2151  70.1121 0002273  22.7074  58.4474 15.73193038  1300,6727.915,91.534,351.309,348.251,0.0
53919.0,STARLINK-5023,PAYLOAD,2022-11-01 14:00:01,15.73185557,0.000251,53.2154,66.8129,31.2366,227.6933,0.00030447,0.00042302,0.0,0 STARLINK-5023,1 53919U 22119AK  22305.58334491  .00042302  00000-0  30447-3 0  9993,2 53919  53.2154  66.8129 0002510  31.2366 227.6933 15.73185557  1303,6727.936,91.534,351.49,348.11300000000006,0.0
53919.0,STARLINK-5023,PAYLOAD,2022-11-01 22:00:00,15.73243334,0.0002457,53.2149,65.1633,24.5536,323.2985,-0.00068922,-0.00096443,0.0,0 STARLINK-5023,1 53919U 22119AK  22305.91667824 -.00096443  00000-0 -68922-3 0  9995,2 53919  53.2149  65.1633 0002457  24.5536 323.2985 15.73243334  1301,6727.772,91.531,351.29,347.9840000000001,0.0
53919.0,STARLINK-5023,PAYLOAD,2022-11-02 06:00:00,15.73159072,0.0002157,53.215,63.5119,20.0639,56.7344,0.00012564,0.00017018,0.0,0 STARLINK-5023,1 53919U 22119AK  22306.25001157  .00017018  00000-0  12564-3 0  9994,2 53919  53.2150  63.5119 0002157  20.0639  56.7344 15.73159072  6460,6728.012,91.536,351.32800000000015,348.426,0.0
53919.0,STARLINK-5023,PAYLOAD,2022-11-02 14:00:01,15.73164746,0.0002421999999999,53.2155,61.8623,16.8697,148.8169,0.00046612,0.00065212,0.0,0 STARLINK-5023,1 53919U 22119AK  22306.58334491  .00065212  00000-0  46612-3 0  9990,2 53919  53.2155  61.8623 0002422  16.8697 148.8169 15.73164746  1308,6727.996,91.535,351.49,348.231,0.0
53919.0,STARLINK-5023,PAYLOAD,2022-11-02 22:00:00,15.73267151,0.0002535,53.2152,60.2146,17.3407,237.2319,-0.00044049,-0.00062175,0.0,0 STARLINK-5023,1 53919U 22119AK  22306.91667824 -.00062175  00000-0 -44049-3 0  9995,2 53919  53.2152  60.2146 0002535  17.3407 237.2319 15.73267151  6565,6727.704000000002,91.529,351.274,347.86300000000006,0.0
53919.0,STARLINK-5023,PAYLOAD,2022-11-03 06:00:02,15.73214044,0.0002501,53.2156,58.5631,13.6778,329.8298,0.00091575,0.00129994,0.0,0 STARLINK-5023,1 53919U 22119AK  22307.25002315  .00129994  00000-0  91575-3 0  9998,2 53919  53.2156  58.5631 0002501  13.6778 329.8298 15.73214044  6614,6727.855,91.532,351.403,348.037,0.0
53919.0,STARLINK-5023,PAYLOAD,2022-11-03 14:00:01,15.73297964,0.0002805,53.2156,56.9156,15.6803,56.7572,-0.00019298,-0.00027737,0.0,0 STARLINK-5023,1 53919U 22119AK  22307.58334491 -.00027737  00000-0 -19298-3 0  9993,2 53919  53.2156  56.9156 0002805  15.6803  56.7572 15.73297964  6675,6727.616,91.527,351.36800000000005,347.594,0.0
53919.0,STARLINK-5023,PAYLOAD,2022-11-03 22:00:00,15.73311045,0.0002874,53.2153,55.2654,14.9201,146.5465,-0.00056006,-0.00078883,0.0,0 STARLINK-5023,1 53919U 22119AK  22307.91667824 -.00078883  00000-0 -56006-3 0  9995,2 53919  53.2153  55.2654 0002874  14.9201 146.5465 15.73311045  1308,6727.579000000002,91.527,351.37699999999984,347.51,0.0
53919.0,STARLINK-5023,PAYLOAD,2022-11-04 14:00:01,15.73404612,0.0002607,53.2162,51.9561,12.2438,327.2225,-0.0044204,-0.00585056,0.0,0 STARLINK-5023,1 53919U 22119AK  22308.58334491 -.00585056  00000-0 -44204-2 0  9991,2 53919  53.2162  51.9561 0002607  12.2438 327.2225 15.73404612  6822,6727.312,91.521,350.931,347.423,0.0
53919.0,STARLINK-5023,PAYLOAD,2022-11-04 22:00:01,15.73221384,0.0002975,53.2159,50.3161,11.8606,56.6672,-0.00074657,-0.00104235,0.0,0 STARLINK-5023,1 53919U 22119AK  22308.91668981 -.00104235  00000-0 -74657-3 0  9994,2 53919  53.2159  50.3161 0002975  11.8606  56.6672 15.73221384  6885,6727.834,91.532,351.701,347.6980000000001,0.0
53919.0,STARLINK-5023,PAYLOAD,2022-11-05 12:00:00,15.73091945,0.0003221,53.2163,47.4299,21.1053,112.8922,0.00040651,0.00056562,0.0,0 STARLINK-5023,1 53919U 22119AK  22309.50001157  .00056562  00000-0  40651-3 0  9990,2 53919  53.2163  47.4299 0003221  21.1053 112.8922 15.73091945  6975,6728.203,91.539,352.235,347.901,0.0
53919.0,STARLINK-5023,PAYLOAD,2022-11-05 14:00:01,15.73093032,0.0003335,53.2164,47.018,21.2977,224.9681,0.00057117,0.00079953,0.0,0 STARLINK-5023,1 53919U 22119AK  22309.58335648  .00079953  00000-0  57117-3 0  9997,2 53919  53.2164  47.0180 0003335  21.2977 224.9681 15.73093032  1301,6728.2,91.539,352.309,347.821,0.0
